KUIPER-00050            
1 64510U 25134L   26068.69256258  .00006094  00000+0  54273-3 0  9998
2 64510  51.8888 211.9413 0004326 323.7107  36.3569 14.97208204 40378
STARLINK-36224          
1 67203U 25304M   26068.68530201  .00003198  00000+0  28131-3 0  9997
2 67203  70.0008 174.4831 0004228 273.0988  86.9687 14.97535483 13889
